start=new Date('2021-09-07T00:00:00.000Z').valueOf();
sats=[{"LAUNCH_DATE":"2020-04-22","SEMIMAJOR_AXIS":"6925.341","EPOCH":"2021-09-06T20:33:13.659840","MEAN_MOTION":"15.06402511","RA_OF_ASC_NODE":"270.5733","REV_AT_EPOCH":"7745","DECAY_DATE":null,"MEAN_MOTION_DOT":"0.00000634","OBJECT_NAME":"STARLINK-1354","PERIAPSIS":"546.542","CENTER_NAME":"EARTH","INCLINATION":"53.0533","MEAN_ELEMENT_THEORY":"SGP4","GP_ID":"184222984","ECCENTRICITY":"0.00009580","TIME_SYSTEM":"UTC","OBJECT_TYPE":"PAYLOAD","MEAN_MOTION_DDOT":"0.0000000000000","RCS_SIZE":"LARGE","REF_FRAME":"TEME","CLASSIFICATION_TYPE":"U","PERIOD":"95.592","OBJECT_ID":"2020-025AH","SITE":"AFETR","MEAN_ANOMALY":"288.1746","BSTAR":"0.00006146500000","FILE":"3109923","EPHEMERIS_TYPE":"0","TLE_LINE1":"1 45562U 20025AH  21249.85640810  .00000634  00000-0  61465-4 0  9990","APOAPSIS":"547.869","COUNTRY_CODE":"US","ELEMENT_SET_NO":"999","TLE_LINE2":"2 45562  53.0533 270.5733 0000958  71.9348 288.1746 15.06402511 77458","ARG_OF_PERICENTER":"71.9348","NORAD_CAT_ID":"45562"},{"SEMIMAJOR_AXIS":"6925.364","EPOCH":"2021-09-06T19:18:53.098272","MEAN_MOTION":"15.06394818","RA_OF_ASC_NODE":"270.8013","REV_AT_EPOCH":"7744","DECAY_DATE":null,"LAUNCH_DATE":"2020-04-22","INCLINATION":"53.0544","MEAN_ELEMENT_THEORY":"SGP4","GP_ID":"184224235","ECCENTRICITY":"0.00009220","MEAN_MOTION_DOT":"-0.00000706","OBJECT_NAME":"STARLINK-1355","CENTER_NAME":"EARTH","PERIAPSIS":"546.591","OBJECT_ID":"2020-025AJ","SITE":"AFETR","MEAN_ANOMALY":"288.4968","BSTAR":"-0.00002853400000","FILE":"3109923","TIME_SYSTEM":"UTC","OBJECT_TYPE":"PAYLOAD","MEAN_MOTION_DDOT":"0.0000000000000","RCS_SIZE":"LARGE","REF_FRAME":"TEME","CLASSIFICATION_TYPE":"U","PERIOD":"95.592","ELEMENT_SET_NO":"999","TLE_LINE2":"2 45563  53.0544 270.8013 0000922  71.6121 288.4968 15.06394818 77440","ARG_OF_PERICENTER":"71.6121","NORAD_CAT_ID":"45563","EPHEMERIS_TYPE":"0","TLE_LINE1":"1 45563U 20025AJ  21249.80478123 -.00000706  00000-0 -28534-4 0  9994","APOAPSIS":"547.868","COUNTRY_CODE":"US"},{"SEMIMAJOR_AXIS":"6925.355","EPOCH":"2021-09-06T19:13:36.548544","MEAN_MOTION":"15.06398007","REV_AT_EPOCH":"7744","RA_OF_ASC_NODE":"270.8201","DECAY_DATE":null,"LAUNCH_DATE":"2020-04-22","INCLINATION":"53.0528","MEAN_ELEMENT_THEORY":"SGP4","GP_ID":"184223986","ECCENTRICITY":"0.00006810","MEAN_MOTION_DOT":"0.00001574","OBJECT_NAME":"STARLINK-1356","CENTER_NAME":"EARTH","PERIAPSIS":"546.748","OBJECT_ID":"2020-025AK","SITE":"AFETR","MEAN_ANOMALY":"303.3701","BSTAR":"0.00012455000000","FILE":"3109923","OBJECT_TYPE":"PAYLOAD","TIME_SYSTEM":"UTC","RCS_SIZE":"LARGE","MEAN_MOTION_DDOT":"0.0000000000000","REF_FRAME":"TEME","PERIOD":"95.592","CLASSIFICATION_TYPE":"U","ELEMENT_SET_NO":"999","TLE_LINE2":"2 45564  53.0528 270.8201 0000681  56.7353 303.3701 15.06398007 77441","ARG_OF_PERICENTER":"56.7353","NORAD_CAT_ID":"45564","EPHEMERIS_TYPE":"0","TLE_LINE1":"1 45564U 20025AK  21249.80111746  .00001574  00000-0  12455-3 0  9996","APOAPSIS":"547.691","COUNTRY_CODE":"US"},{"NORAD_CAT_ID":"45565","ELEMENT_SET_NO":"999","TLE_LINE2":"2 45565  53.0535 270.8533 0000842  66.5126 293.5952 15.06394885 77442","ARG_OF_PERICENTER":"66.5126","COUNTRY_CODE":"US","APOAPSIS":"547.812","EPHEMERIS_TYPE":"0","TLE_LINE1":"1 45565U 20025AL  21249.79373756  .00001546  00000-0  12266-3 0  9995","FILE":"3109923","MEAN_ANOMALY":"293.5952","BSTAR":"0.00012266000000","OBJECT_ID":"2020-025AL","SITE":"AFETR","PERIOD":"95.592","CLASSIFICATION_TYPE":"U","REF_FRAME":"TEME","RCS_SIZE":"LARGE","MEAN_MOTION_DDOT":"0.0000000000000","TIME_SYSTEM":"UTC","OBJECT_TYPE":"PAYLOAD","GP_ID":"184222734","ECCENTRICITY":"0.00008420","MEAN_ELEMENT_THEORY":"SGP4","INCLINATION":"53.0535","OBJECT_NAME":"STARLINK-1357","PERIAPSIS":"546.646","CENTER_NAME":"EARTH","MEAN_MOTION_DOT":"0.00001546","DECAY_DATE":null,"MEAN_MOTION":"15.06394885","REV_AT_EPOCH":"7744","RA_OF_ASC_NODE":"270.8533","SEMIMAJOR_AXIS":"6925.364","EPOCH":"2021-09-06T19:02:58.925184","LAUNCH_DATE":"2020-04-22"},{"MEAN_MOTION_DDOT":"0.0000000000000","RCS_SIZE":"LARGE","OBJECT_TYPE":"PAYLOAD","TIME_SYSTEM":"UTC","CLASSIFICATION_TYPE":"U","PERIOD":"95.592","REF_FRAME":"TEME","BSTAR":"0.00007156300000","MEAN_ANOMALY":"282.7953","SITE":"AFETR","OBJECT_ID":"2020-025AM","FILE":"3109699","TLE_LINE1":"1 45566U 20025AM  21249.54309229  .00000785  00000-0  71563-4 0  9993","EPHEMERIS_TYPE":"0","COUNTRY_CODE":"US","APOAPSIS":"547.774","TLE_LINE2":"2 45566  53.0560 271.9722 0000786  77.3123 282.7953 15.06394691 77409","ARG_OF_PERICENTER":"77.3123","ELEMENT_SET_NO":"999","NORAD_CAT_ID":"45566","LAUNCH_DATE":"2020-04-22","REV_AT_EPOCH":"7740","RA_OF_ASC_NODE":"271.9722","MEAN_MOTION":"15.06394691","EPOCH":"2021-09-06T13:02:03.173856","SEMIMAJOR_AXIS":"6925.365","DECAY_DATE":null,"MEAN_MOTION_DOT":"0.00000785","PERIAPSIS":"546.685","CENTER_NAME":"EARTH","OBJECT_NAME":"STARLINK-1358","MEAN_ELEMENT_THEORY":"SGP4","INCLINATION":"53.0560","ECCENTRICITY":"0.00007860","GP_ID":"184195311"},{"SITE":"AFETR","OBJECT_ID":"2020-025AN","BSTAR":"0.00006083500000","MEAN_ANOMALY":"291.8645","FILE":"3109923","TIME_SYSTEM":"UTC","OBJECT_TYPE":"PAYLOAD","RCS_SIZE":"LARGE","MEAN_MOTION_DDOT":"0.0000000000000","REF_FRAME":"TEME","PERIOD":"95.592","CLASSIFICATION_TYPE":"U","TLE_LINE2":"2 45567  53.0533 271.0349 0000781  68.2427 291.8645 15.06404091 77446","ARG_OF_PERICENTER":"68.2427","ELEMENT_SET_NO":"999","NORAD_CAT_ID":"45567","TLE_LINE1":"1 45567U 20025AN  21249.75318792  .00000625  00000-0  60835-4 0  9995","EPHEMERIS_TYPE":"0","APOAPSIS":"547.742","COUNTRY_CODE":"US","EPOCH":"2021-09-06T18:04:35.436288","SEMIMAJOR_AXIS":"6925.336","RA_OF_ASC_NODE":"271.0349","REV_AT_EPOCH":"7744","MEAN_MOTION":"15.06404091","DECAY_DATE":null,"LAUNCH_DATE":"2020-04-22","INCLINATION":"53.0533","MEAN_ELEMENT_THEORY":"SGP4","ECCENTRICITY":"0.00007810","GP_ID":"184223736","MEAN_MOTION_DOT":"0.00000625","CENTER_NAME":"EARTH","PERIAPSIS":"546.660","OBJECT_NAME":"STARLINK-1361"},{"DECAY_DATE":null,"MEAN_MOTION":"15.06407659","RA_OF_ASC_NODE":"271.9668","REV_AT_EPOCH":"7740","SEMIMAJOR_AXIS":"6925.325","EPOCH":"2021-09-06T13:05:58.264800","LAUNCH_DATE":"2020-04-22","GP_ID":"184194809","ECCENTRICITY":"0.00008980","MEAN_ELEMENT_THEORY":"SGP4","INCLINATION":"53.0538","OBJECT_NAME":"STARLINK-1363","CENTER_NAME":"EARTH","PERIAPSIS":"546.568","MEAN_MOTION_DOT":"0.00000876","FILE":"3109699","MEAN_ANOMALY":"287.0175","BSTAR":"0.00007767300000","OBJECT_ID":"2020-025AP","SITE":"AFETR","CLASSIFICATION_TYPE":"U","PERIOD":"95.592","REF_FRAME":"TEME","RCS_SIZE":"LARGE","MEAN_MOTION_DDOT":"0.0000000000000","OBJECT_TYPE":"PAYLOAD","TIME_SYSTEM":"UTC","NORAD_CAT_ID":"45568","ELEMENT_SET_NO":"999","TLE_LINE2":"2 45568  53.0538 271.9668 0000898  73.0912 287.0175 15.06407659 77401","ARG_OF_PERICENTER":"73.0912","COUNTRY_CODE":"US","APOAPSIS":"547.812","TLE_LINE1":"1 45568U 20025AP  21249.54581325  .00000876  00000-0  77673-4 0  9993","EPHEMERIS_TYPE":"0"},{"ELEMENT_SET_NO":"999","TLE_LINE2":"2 45569  53.0537 271.0166 0001058  87.7991 272.3119 15.06406650 77431","ARG_OF_PERICENTER":"87.7991","NORAD_CAT_ID":"45569","EPHEMERIS_TYPE":"0","TLE_LINE1":"1 45569U 20025AQ  21249.75686708 -.00000554  00000-0 -18305-4 0  9990","COUNTRY_CODE":"US","APOAPSIS":"547.926","MEAN_ANOMALY":"272.3119","BSTAR":"-0.00001830500000","OBJECT_ID":"2020-025AQ","SITE":"AFETR","FILE":"3109923","RCS_SIZE":"LARGE","MEAN_MOTION_DDOT":"0.0000000000000","OBJECT_TYPE":"PAYLOAD","TIME_SYSTEM":"UTC","CLASSIFICATION_TYPE":"U","PERIOD":"95.592","REF_FRAME":"TEME","MEAN_ELEMENT_THEORY":"SGP4","INCLINATION":"53.0537","GP_ID":"184223234","ECCENTRICITY":"0.00010580","MEAN_MOTION_DOT":"-0.00000554","OBJECT_NAME":"STARLINK-1366","CENTER_NAME":"EARTH","PERIAPSIS":"546.460","MEAN_MOTION":"15.06406650","RA_OF_ASC_NODE":"271.0166","REV_AT_EPOCH":"7743","SEMIMAJOR_AXIS":"6925.328","EPOCH":"2021-09-06T18:09:53.315712","DECAY_DATE":null,"LAUNCH_DATE":"2020-04-22"},{"SITE":"AFETR","OBJECT_ID":"2020-025AR","BSTAR":"-0.00004259800000","MEAN_ANOMALY":"269.9216","FILE":"3109813","OBJECT_TYPE":"PAYLOAD","TIME_SYSTEM":"UTC","RCS_SIZE":"LARGE","MEAN_MOTION_DDOT":"0.0000000000000","REF_FRAME":"TEME","CLASSIFICATION_TYPE":"U","PERIOD":"95.592","TLE_LINE2":"2 45570  53.0534 271.9453 0001236  90.1914 269.9216 15.06401558 76801","ARG_OF_PERICENTER":"90.1914","ELEMENT_SET_NO":"999","NORAD_CAT_ID":"45570","EPHEMERIS_TYPE":"0","TLE_LINE1":"1 45570U 20025AR  21249.55044897 -.00000916  00000-0 -42598-4 0  9990","APOAPSIS":"548.065","COUNTRY_CODE":"US","EPOCH":"2021-09-06T13:12:38.791008","SEMIMAJOR_AXIS":"6925.344","RA_OF_ASC_NODE":"271.9453","REV_AT_EPOCH":"7680","MEAN_MOTION":"15.06401558","DECAY_DATE":null,"LAUNCH_DATE":"2020-04-22","INCLINATION":"53.0534","MEAN_ELEMENT_THEORY":"SGP4","ECCENTRICITY":"0.00012360","GP_ID":"184201222","MEAN_MOTION_DOT":"-0.00000916","PERIAPSIS":"546.353","CENTER_NAME":"EARTH","OBJECT_NAME":"STARLINK-1376"},{"MEAN_MOTION_DDOT":"0.0000000000000","RCS_SIZE":"LARGE","OBJECT_TYPE":"PAYLOAD","TIME_SYSTEM":"UTC","PERIOD":"95.592","CLASSIFICATION_TYPE":"U","REF_FRAME":"TEME","BSTAR":"-0.00000775430000","MEAN_ANOMALY":"270.8452","SITE":"AFETR","OBJECT_ID":"2020-025AS","FILE":"3109923","EPHEMERIS_TYPE":"0","TLE_LINE1":"1 45571U 20025AS  21249.76515618 -.00000397  00000-0 -77543-5 0  9990","COUNTRY_CODE":"US","APOAPSIS":"547.820","TLE_LINE2":"2 45571  53.0529 260.9842 0000860  89.2636 270.8452 15.06396314 77591","ARG_OF_PERICENTER":"89.2636","ELEMENT_SET_NO":"999","NORAD_CAT_ID":"45571","LAUNCH_DATE":"2020-04-22","RA_OF_ASC_NODE":"260.9842","REV_AT_EPOCH":"7759","MEAN_MOTION":"15.06396314","EPOCH":"2021-09-06T18:21:49.493952","SEMIMAJOR_AXIS":"6925.360","DECAY_DATE":null,"MEAN_MOTION_DOT":"-0.00000397","PERIAPSIS":"546.629","CENTER_NAME":"EARTH","OBJECT_NAME":"STARLINK-1261","MEAN_ELEMENT_THEORY":"SGP4","INCLINATION":"53.0529","ECCENTRICITY":"0.00008600","GP_ID":"184224236"}];
